1 29155U 06018A   11306.38561005 -.00000265  00000-0  10000-3 0  8005
2 29155 000.2054 079.9956 0000884 010.5815 014.9164 01.00274274 19967